{
  "type": "FeatureCollection",
  "features": [
    {
      "type": "Feature",
      "properties": {
        "norad_id": 27954,
        "name": "GALAXY 13 (HORIZONS-1)",
        "group": "intelsat",
        "lat": 0.6964314327096507,
        "lon": -143.0932292575748,
        "alt_km": 35779.0644514379,
        "timestamp": "2025-12-14T18:52:55.165637+00:00",
        "meta_object_name": "GALAXY 13 (HORIZONS-1)",
        "meta_object_id": "2003-044A",
        "meta_epoch": "2025-12-13T17:52:17.853312",
        "meta_mean_motion": 1.0027199,
        "meta_eccentricity": 0.00020627,
        "meta_inclination": 0.9383,
        "meta_ra_of_asc_node": 86.4554,
        "meta_arg_of_pericenter": 169.8894,
        "meta_mean_anomaly": 304.3972,
        "meta_ephemeris_type": 0,
        "meta_classification_type": "U",
        "meta_norad_cat_id": 27954,
        "meta_element_set_no": 999,
        "meta_rev_at_epoch": 4471,
        "meta_bstar": 0,
        "meta_mean_motion_dot": 1.48e-06,
        "meta_mean_motion_ddot": 0,
        "tle_line1": "1 27954U 03044A   25347.74465108  .00000148  00000+0  00000+0 0  9995",
        "tle_line2": "2 27954   0.9383  86.4554 0002062 169.8894 304.3972  1.00271990 44712"
      },
      "geometry": {
        "type": "Point",
        "coordinates": [
          -143.0932292575748,
          0.6964314327096507
        ]
      }
    },
    {
      "type": "Feature",
      "properties": {
        "norad_id": 28358,
        "name": "INTELSAT 10-02",
        "group": "intelsat",
        "lat": -0.008514417306283752,
        "lon": 5.964060542846327,
        "alt_km": 35783.86959498926,
        "timestamp": "2025-12-14T18:52:55.165649+00:00",
        "meta_object_name": "INTELSAT 10-02",
        "meta_object_id": "2004-022A",
        "meta_epoch": "2025-12-13T22:31:38.836416",
        "meta_mean_motion": 1.00270756,
        "meta_eccentricity": 0.00011706,
        "meta_inclination": 0.0254,
        "meta_ra_of_asc_node": 70.2348,
        "meta_arg_of_pericenter": 235.9952,
        "meta_mean_anomaly": 113.5812,
        "meta_ephemeris_type": 0,
        "meta_classification_type": "U",
        "meta_norad_cat_id": 28358,
        "meta_element_set_no": 999,
        "meta_rev_at_epoch": 7869,
        "meta_bstar": 0,
        "meta_mean_motion_dot": 6e-08,
        "meta_mean_motion_ddot": 0,
        "tle_line1": "1 28358U 04022A   25347.93864394  .00000006  00000+0  00000+0 0  9995",
        "tle_line2": "2 28358   0.0254  70.2348 0001170 235.9952 113.5812  1.00270756 78696"
      },
      "geometry": {
        "type": "Point",
        "coordinates": [
          5.964060542846327,
          -0.008514417306283752
        ]
      }
    },
    {
      "type": "Feature",
      "properties": {
        "norad_id": 28626,
        "name": "XM-3 (RHYTHM)",
        "group": "intelsat",
        "lat": 0.10446339186465506,
        "lon": 111.53400745082826,
        "alt_km": 36163.36728337643,
        "timestamp": "2025-12-14T18:52:55.165662+00:00",
        "meta_object_name": "XM-3 (RHYTHM)",
        "meta_object_id": "2005-008A",
        "meta_epoch": "2025-12-13T23:46:51.582720",
        "meta_mean_motion": 0.98951927,
        "meta_eccentricity": 0.00016206,
        "meta_inclination": 0.178,
        "meta_ra_of_asc_node": 81.6517,
        "meta_arg_of_pericenter": 273.1802,
        "meta_mean_anomaly": 193.1786,
        "meta_ephemeris_type": 0,
        "meta_classification_type": "U",
        "meta_norad_cat_id": 28626,
        "meta_element_set_no": 999,
        "meta_rev_at_epoch": 4076,
        "meta_bstar": 0,
        "meta_mean_motion_dot": -1.07e-06,
        "meta_mean_motion_ddot": 0,
        "tle_line1": "1 28626U 05008A   25347.99087480 -.00000107  00000+0  00000+0 0  9990",
        "tle_line2": "2 28626   0.1780  81.6517 0001620 273.1802 193.1786  0.98951927 40764"
      },
      "geometry": {
        "type": "Point",
        "coordinates": [
          111.53400745082826,
          0.10446339186465506
        ]
      }
    },
    {
      "type": "Feature",
      "properties": {
        "norad_id": 28659,
        "name": "DIRECTV 8",
        "group": "intelsat",
        "lat": -0.01653735908259205,
        "lon": -112.13348874233186,
        "alt_km": 35774.15280595126,
        "timestamp": "2025-12-14T18:52:55.165675+00:00",
        "meta_object_name": "DIRECTV 8",
        "meta_object_id": "2005-019A",
        "meta_epoch": "2025-12-13T21:26:37.129920",
        "meta_mean_motion": 1.00272115,
        "meta_eccentricity": 0.00029774,
        "meta_inclination": 0.0254,
        "meta_ra_of_asc_node": 70.4656,
        "meta_arg_of_pericenter": 198.1047,
        "meta_mean_anomaly": 16.8611,
        "meta_ephemeris_type": 0,
        "meta_classification_type": "U",
        "meta_norad_cat_id": 28659,
        "meta_element_set_no": 999,
        "meta_rev_at_epoch": 7521,
        "meta_bstar": 0,
        "meta_mean_motion_dot": 1.7e-07,
        "meta_mean_motion_ddot": 0,
        "tle_line1": "1 28659U 05019A   25347.89348530  .00000017  00000+0  00000+0 0  9992",
        "tle_line2": "2 28659   0.0254  70.4656 0002977 198.1047  16.8611  1.00272115 75213"
      },
      "geometry": {
        "type": "Point",
        "coordinates": [
          -112.13348874233186,
          -0.01653735908259205
        ]
      }
    },
    {
      "type": "Feature",
      "properties": {
        "norad_id": 28702,
        "name": "GALAXY 28 (G-28)",
        "group": "intelsat",
        "lat": -0.8439043475408539,
        "lon": -81.77809874661023,
        "alt_km": 35774.5685469869,
        "timestamp": "2025-12-14T18:52:55.165687+00:00",
        "meta_object_name": "GALAXY 28 (G-28)",
        "meta_object_id": "2005-022A",
        "meta_epoch": "2025-12-13T21:35:13.805376",
        "meta_mean_motion": 1.00271573,
        "meta_eccentricity": 0.00028277,
        "meta_inclination": 2.8219,
        "meta_ra_of_asc_node": 81.2684,
        "meta_arg_of_pericenter": 185.7163,
        "meta_mean_anomaly": 50.9597,
        "meta_ephemeris_type": 0,
        "meta_classification_type": "U",
        "meta_norad_cat_id": 28702,
        "meta_element_set_no": 999,
        "meta_rev_at_epoch": 5011,
        "meta_bstar": 0,
        "meta_mean_motion_dot": -1.72e-06,
        "meta_mean_motion_ddot": 0,
        "tle_line1": "1 28702U 05022A   25347.89946534 -.00000172  00000+0  00000+0 0  9996",
        "tle_line2": "2 28702   2.8219  81.2684 0002827 185.7163  50.9597  1.00271573 50110"
      },
      "geometry": {
        "type": "Point",
        "coordinates": [
          -81.77809874661023,
          -0.8439043475408539
        ]
      }
    },
    {
      "type": "Feature",
      "properties": {
        "norad_id": 29236,
        "name": "GALAXY 16 (G-16)",
        "group": "intelsat",
        "lat": -0.015686318235895624,
        "lon": -92.09559548369907,
        "alt_km": 35776.052918548936,
        "timestamp": "2025-12-14T18:52:55.165699+00:00",
        "meta_object_name": "GALAXY 16 (G-16)",
        "meta_object_id": "2006-023A",
        "meta_epoch": "2025-12-13T21:32:21.579936",
        "meta_mean_motion": 1.00270493,
        "meta_eccentricity": 0.00024622,
        "meta_inclination": 0.0213,
        "meta_ra_of_asc_node": 81.9348,
        "meta_arg_of_pericenter": 183.5106,
        "meta_mean_anomaly": 41.4553,
        "meta_ephemeris_type": 0,
        "meta_classification_type": "U",
        "meta_norad_cat_id": 29236,
        "meta_element_set_no": 999,
        "meta_rev_at_epoch": 7111,
        "meta_bstar": 0,
        "meta_mean_motion_dot": 0,
        "meta_mean_motion_ddot": 0,
        "tle_line1": "1 29236U 06023A   25347.89747199  .00000000  00000+0  00000+0 0  9996",
        "tle_line2": "2 29236   0.0213  81.9348 0002462 183.5106  41.4553  1.00270493 71119"
      },
      "geometry": {
        "type": "Point",
        "coordinates": [
          -92.09559548369907,
          -0.015686318235895624
        ]
      }
    },
    {
      "type": "Feature",
      "properties": {
        "norad_id": 29494,
        "name": "DIRECTV 9S",
        "group": "intelsat",
        "lat": -0.10650327615391549,
        "lon": -94.29040554065166,
        "alt_km": 35773.5898797958,
        "timestamp": "2025-12-14T18:52:55.165711+00:00",
        "meta_object_name": "DIRECTV 9S",
        "meta_object_id": "2006-043A",
        "meta_epoch": "2025-12-13T21:31:44.140224",
        "meta_mean_motion": 1.00271915,
        "meta_eccentricity": 0.00029492,
        "meta_inclination": 1.9433,
        "meta_ra_of_asc_node": 83.1998,
        "meta_arg_of_pericenter": 183.3226,
        "meta_mean_anomaly": 38.0226,
        "meta_ephemeris_type": 0,
        "meta_classification_type": "U",
        "meta_norad_cat_id": 29494,
        "meta_element_set_no": 999,
        "meta_rev_at_epoch": 4952,
        "meta_bstar": 0,
        "meta_mean_motion_dot": -9.7e-07,
        "meta_mean_motion_ddot": 0,
        "tle_line1": "1 29494U 06043A   25347.89703866 -.00000097  00000+0  00000+0 0  9994",
        "tle_line2": "2 29494   1.9433  83.1998 0002949 183.3226  38.0226  1.00271915 49524"
      },
      "geometry": {
        "type": "Point",
        "coordinates": [
          -94.29040554065166,
          -0.10650327615391549
        ]
      }
    }
  ]
}